ARIANE 40 R/B           
1 20443U 90005H   26009.67577239  .00000301  00000+0  10930-3 0  9999
2 20443  98.3202  72.0590 0010490  28.7679 331.4086 14.39823270884313
DELTA 2 R/B(1)          
1 20453U 90008B   26009.25170547  .00056265  00000+0  83469-3 0  9995
2 20453  35.6037 202.5248 0103334  68.8832 292.2912 15.48064365916894
COSMOS 2058             
1 20465U 90010A   26009.64492702  .00004146  00000+0  24788-3 0  9994
2 20465  82.4697 105.5828 0010118 173.3594 186.7772 15.10779393933320
SL-14 R/B               
1 20466U 90010B   26009.60251993  .00000556  00000+0  64461-4 0  9990
2 20466  82.5039 322.8795 0020981 131.4372 228.8650 14.83504650919729
SL-14 R/B               
1 20511U 90018B   26009.69841538  .00000495  00000+0  59270-4 0  9992
2 20511  82.5218 278.2356 0014971 288.2882  71.6703 14.82081910913843
HST                     
1 20580U 90037B   26009.48053356  .00008269  00000+0  28192-3 0  9994
2 20580  28.4667  83.6067 0002263 165.3407 194.7254 15.28472728764240
SL-16 R/B               
1 20625U 90046B   26009.59873415  .00000298  00000+0  17822-3 0  9994
2 20625  70.9997  62.0151 0013091  25.9448 334.2329 14.15005101840038
COSMOS 2084             
1 20663U 90055A   26009.67142243  .00003786  00000+0  27589-3 0  9999
2 20663  62.7893 176.8061 0027037 178.9143 181.2021 15.05225408927437
SL-6 R/B(2)             
1 20666U 90055D   26009.57473488  .00002411  00000+0  19124-3 0  9999
2 20666  62.7836  94.8263 0016255 326.2415  33.7648 15.03244104929306
SL-8 R/B                
1 20775U 90078B   26009.33132134  .00016642  00000+0  50720-3 0  9997
2 20775  82.9061 304.5971 0368935 212.9780 144.7942 14.86918635800472
SL-8 R/B                
1 21088U 91006B   26009.64374189 -.00000002  00000+0 -17825-4 0  9994
2 21088  82.9408 213.9560 0022023 197.8803 225.3407 13.77492668755949
OKEAN-3                 
1 21397U 91039A   26009.55480072  .00003076  00000+0  21833-3 0  9997
2 21397  82.5164  34.1171 0014886 166.2060 193.9576 15.04325674856146
COSMOS 2151             
1 21422U 91042A   26009.64540679  .00002680  00000+0  21420-3 0  9992
2 21422  82.4979 140.6103 0011262 257.6290 102.3673 14.99830679854342
SL-14 R/B               
1 21423U 91042B   26009.67159384  .00000465  00000+0  55825-4 0  9991
2 21423  82.4934 275.5339 0018575  76.1672 284.1608 14.81770364844335
ERS-1                   
1 21574U 91050A   26009.61209415  .00000386  00000+0  13829-3 0  9991
2 21574  98.7898  26.3632 0032280  19.4309 340.8101 14.39392494807238
ARIANE 40 R/B           
1 21610U 91050F   26009.66473731  .00000345  00000+0  11607-3 0  9998
2 21610  98.2125  64.0823 0002087 241.2343 118.8638 14.42841035810486
INTERCOSMOS 25          
1 21819U 91086A   26009.62382060  .00001788  00000+0  35554-3 0  9997
2 21819  82.6088 345.7079 1485962 244.2526  99.8019 12.11841630489532
SL-8 R/B                
1 21876U 92008B   26009.62562709  .00000110  00000+0  97711-4 0  9997
2 21876  82.9287 311.7065 0033578 301.1418 232.8597 13.75965503701298
SL-8 R/B                
1 21938U 92020B   26009.62935142  .00000174  00000+0  16375-3 0  9991
2 21938  82.9291 197.6063 0030213 102.2694 326.8235 13.75536207693018
USA 81                  
1 21949U 92023A   26009.69836551  .00000246  00000+0  83656-4 0  9994
2 21949  85.0095 165.4522 0001426 116.0788 244.0551 14.32340478 86341
COSMOS 2219             
1 22219U 92076A   26009.66653553  .00000157  00000+0  10734-3 0  9996
2 22219  71.0613 141.4549 0020389 288.4340  71.4566 14.14080430710030
SL-16 R/B               
1 22220U 92076B   26009.62653214  .00000247  00000+0  14712-3 0  9998
2 22220  71.0014 312.7884 0013314 195.2437 338.8753 14.16846829713466
COSMOS 2221             
1 22236U 92080A   26009.64593733  .00002866  00000+0  25337-3 0  9995
2 22236  82.5058 335.6119 0015649  36.8801 323.3493 14.95907466771962
SL-16 R/B               
1 22285U 92093B   26009.65907587  .00000111  00000+0  81382-4 0  9994
2 22285  71.0215 128.1890 0003356   5.3998 354.7160 14.15434304704801
COSMOS 2228             
1 22286U 92094A   26009.63399691  .00002280  00000+0  19578-3 0  9991
2 22286  82.5190 293.8451 0019044 136.3101 223.9633 14.96890039767223
SL-16 R/B               
1 22566U 93016B   26009.34019910 -.00000212  00000+0 -84546-4 0  9991
2 22566  71.0089 339.8333 0008386  42.9500 317.2277 14.15295498693774
COSMOS 2242             
1 22626U 93024A   26009.59120986  .00002459  00000+0  21495-3 0  9996
2 22626  82.5208 323.2226 0017412 139.0171 221.2364 14.96253499771559
SL-16 R/B               
1 22803U 93059B   26009.68254799  .00000038  00000+0  42517-4 0  9991
2 22803  70.9903 135.5632 0019244 296.5719  63.3432 14.17218869671179
ARIANE 40 R/B           
1 22830U 93061H   26009.69111506  .00000273  00000+0  11590-3 0  9990
2 22830  98.5033  79.7072 0011823  98.9417 261.3106 14.32823323685650
COSMOS 2278             
1 23087U 94023A   26009.54301116  .00000384  00000+0  22508-3 0  9990
2 23087  71.0550 298.8415 0007024 128.2451 231.9305 14.14360729636446
SL-16 R/B               
1 23088U 94023B   26009.68702515  .00000335  00000+0  19783-3 0  9991
2 23088  70.9984 194.7961 0002921 347.6264  12.4786 14.15002698637744
SL-16 R/B               
1 23343U 94074B   26009.68845543  .00000514  00000+0  75672-4 0  9999
2 23343  97.7176  42.8784 0007831  60.2286  56.3483 14.79328389678521
SL-16 R/B               
1 23405U 94077B   26009.69165853  .00000241  00000+0  14763-3 0  9991
2 23405  70.9829 116.6114 0004849 261.4068  98.6505 14.15551799607882
ARIANE 40+ R/B          
1 23561U 95021B   26009.68525544  .00000317  00000+0  11508-3 0  9998
2 23561  98.4612  81.9323 0005984 326.1826 147.7197 14.39721225610750
SL-16 R/B               
1 23705U 95058B   26009.55439762  .00000241  00000+0  14763-3 0  9992
2 23705  71.0230 304.4076 0013912 218.0256 141.9886 14.15488560559486
SL-16 R/B               
1 24298U 96051B   26009.53416748  .00000026  00000+0  40726-4 0  9991
2 24298  70.7598 300.4514 0019197 227.2157 132.7348 14.12400217513293
ORBVIEW 2 (SEASTAR)     
1 24883U 97037A   26009.44888918  .00000356  00000+0  14019-3 0  9999
2 24883  98.8475 172.2245 0001566 213.2237 146.8850 14.35442277499978
SL-16 R/B               
1 25400U 98043G   26009.58351463  .00000093  00000+0  57973-4 0  9993
2 25400  98.8164 322.5630 0009748 179.9047 180.2136 14.26033574430569
SL-16 R/B               
1 25407U 98045B   26009.52376016 -.00000165  00000+0 -59434-4 0  9993
2 25407  71.0122 305.9976 0005356 127.7399 232.4210 14.16180445418729
ISS (ZARYA)             
1 25544U 98067A   26009.79019308  .00009674  00000+0  18216-3 0  9990
2 25544  51.6333   3.6003 0007671   0.0842   0.0147 15.49200529547207
CZ-4B R/B               
1 25732U 99025C   26009.69635689  .00000053  00000+0  46195-4 0  9999
2 25732  98.6730  55.3456 0037615 153.2721 317.1019 14.18251402379802
OKEAN-O                 
1 25860U 99039A   26009.64080239  .00000829  00000+0  11589-3 0  9995
2 25860  97.9560  70.0961 0001563 111.2403 248.8976 14.80219516425652
SL-16 R/B               
1 25861U 99039B   26009.67669068  .00000655  00000+0  90018-4 0  9994
2 25861  98.0084  68.8244 0016164  89.2729 271.0336 14.81635417428129
DELTA 2 R/B             
1 25876U 99041E   26009.61103661  .00003049  00000+0  52780-3 0  9992
2 25876  51.7602 177.1787 0503848 173.9173 186.8196 14.11521201354681
HELIOS 1B               
1 25977U 99064A   26009.65523285  .00002320  00000+0  26280-3 0  9998
2 25977  98.1743 270.1503 0000361 106.1284 253.9971 14.87421656676485
TERRA                   
1 25994U 99068A   26009.68788603  .00000492  00000+0  10963-3 0  9990
2 25994  97.9709  65.3412 0002712  36.5099  74.2784 14.60939727386464
SL-16 R/B               
1 26070U 00006B   26009.66507652 -.00000149  00000+0 -51439-4 0  9996
2 26070  71.0010 221.9424 0019002 271.2965  88.5981 14.15815660340209
TITAN 4B R/B            
1 26474U 00047B   26009.65007476  .00003817  00000+0  24528-3 0  9998
2 26474  67.9878 206.4562 0037238 109.8831 250.6337 15.09016608384005
ENVISAT                 
1 27386U 02009A   26009.85631719  .00000130  00000+0  55890-4 0  9998
2 27386  98.3637 324.8899 0001116  91.0257 323.1421 14.39011707250714
IDEFIX & ARIANE 42P R/B 
1 27422U 02021B   26009.69226904  .00000344  00000+0  14723-3 0  9997
2 27422  98.5815 309.0251 0012039   6.7738 353.3605 14.30975874235587
AQUA                    
1 27424U 02022A   26009.89520876  .00001045  00000+0  21914-3 0  9996
2 27424  98.4076 336.2372 0002032  84.5955   1.0356 14.61811442260144
CZ-4B R/B               
1 27432U 02024C   26009.66676316  .00000044  00000+0  45472-4 0  9997
2 27432  98.8957  63.3354 0050054 189.5752 284.6453 14.14534957220897
MIDORI II (ADEOS-II)    
1 27597U 02056A   26009.57863180  .00000372  00000+0  16399-3 0  9990
2 27597  98.7674 327.6867 0001493 125.9943 234.1377 14.29231694201856
H-2A R/B                
1 27601U 02056E   26009.68814750  .00000434  00000+0  16688-3 0  9997
2 27601  98.3103 332.3384 0069923 338.4088 193.8996 14.33707641205650
CZ-4B R/B               
1 28059U 03049C   26009.58589578  .00000503  00000+0  12687-3 0  9996
2 28059  98.6811   2.2052 0049164  52.8850 307.6823 14.54943441178006
CZ-2C R/B               
1 28222U 04012C   26009.63770806  .00042357  00000+0  56080-3 0  9999
2 28222  97.7367  69.6061 0016913 164.6707 195.5064 15.58021486195067
SL-16 R/B               
1 28353U 04021B   26009.41186242  .00000195  00000+0  12599-3 0  9996
2 28353  71.0022 356.8915 0003499 154.3414 205.7883 14.14591229114455
CZ-4B R/B               
1 28415U 04035C   26009.66236604  .00008672  00000+0  31586-3 0  9990
2 28415  97.3580  44.6385 0032962 175.1429 185.0137 15.27920468170899
CZ-2C R/B               
1 28480U 04046B   26009.65590452  .00000296  00000+0  12582-3 0  9996
2 28480  98.1999 288.3015 0138941 329.9326  29.3931 14.26963331100080
